      2.10          N: GNSS NAV DATA                        RINEX VERSION / TYPE
fic2rin                                 06/12/2018 00:06:23 PGM / RUN BY / DATE
                                                            END OF HEADER
25 18  6 11  8  0  0.0-5.991384387016e-04-5.911715561524e-12 0.000000000000e+00
    6.500000000000e+01 1.281250000000e+00 4.669837374614e-09-4.821104988431e-01
    4.097819328308e-08 7.485588081181e-03 1.091510057449e-06 5.153632780075e+03
    1.152000000000e+05-1.862645149231e-08 1.188994470667e+00 1.527369022369e-07
    9.739227324539e-01 3.629062500000e+02 8.673403362979e-01-8.618930441620e-09
   -1.910793877949e-10 1.000000000000e+00 2.005000000000e+03 0.000000000000e+00
    2.400000000000e+00 0.000000000000e+00 6.053596735001e-09 6.500000000000e+01
    1.080060000000e+05 4.000000000000e+00
23 18  6 11  8  0  0.0-2.160202711821e-04 4.547473508865e-13 0.000000000000e+00
    8.700000000000e+01-1.559375000000e+01 4.917347684412e-09 2.106268616097e+00
   -8.717179298401e-07 1.258654077537e-02 1.097656786442e-05 5.153790863037e+03
    1.152000000000e+05-2.272427082062e-07-9.229168530657e-01-1.844018697739e-07
    9.434025703781e-01 1.635312500000e+02-2.355847191977e+00-8.035691861678e-09
   -4.521616914922e-10 1.000000000000e+00 2.005000000000e+03 0.000000000000e+00
    2.400000000000e+00 0.000000000000e+00-2.002343535423e-08 8.700000000000e+01
    1.080060000000e+05 4.000000000000e+00
19 18  6 11  8  0  0.0-4.293355159461e-04 3.069544618484e-12 0.000000000000e+00
    8.100000000000e+01-9.893750000000e+01 3.654080778560e-09-7.669488470694e-03
   -5.068257451057e-06 9.905225131661e-03 1.101940870285e-05 5.153722080231e+03
    1.152000000000e+05-1.695007085800e-07 2.330451648025e+00 2.011656761169e-07
    9.804141959008e-01 1.796875000000e+02 1.200569141415e+00-7.793181760159e-09
   -1.114332130692e-10 1.000000000000e+00 2.005000000000e+03 0.000000000000e+00
    2.400000000000e+00 0.000000000000e+00-1.536682248116e-08 8.100000000000e+01
    1.080060000000e+05 4.000000000000e+00
17 18  6 11  8  0  0.0-8.938228711486e-05 3.637978807092e-12 0.000000000000e+00
    1.010000000000e+02-1.152812500000e+02 3.536575884010e-09-2.938754858936e+00
   -5.846843123436e-06 1.235641120002e-02 1.059286296368e-05 5.153577325821e+03
    1.152000000000e+05 9.872019290924e-08 2.283492362428e+00-4.097819328308e-08
    9.828507327752e-01 1.838750000000e+02-1.778152275180e+00-7.424594978468e-09
   -1.607209803882e-10 1.000000000000e+00 2.005000000000e+03 0.000000000000e+00
    3.400000000000e+00 0.000000000000e+00-1.117587089539e-08 1.010000000000e+02
    1.080060000000e+05 4.000000000000e+00
21 18  6 11  8  0  0.0-3.829747438431e-04 5.229594535194e-12 0.000000000000e+00
    1.030000000000e+02 3.218750000000e+00 4.845916137572e-09-5.412903466871e-01
    2.309679985046e-07 2.434933546465e-02 1.087971031666e-05 5.153691118240e+03
    1.152000000000e+05-2.998858690262e-07-3.052538069960e+00 1.750886440277e-07
    9.444179510956e-01 1.704062500000e+02-1.551667430891e+00-8.523212168855e-09
    7.700320749268e-10 1.000000000000e+00 2.005000000000e+03 0.000000000000e+00
    2.400000000000e+00 0.000000000000e+00-1.024454832077e-08 1.030000000000e+02
    1.080060000000e+05 4.000000000000e+00
32 18  6 11  8  0  0.0-4.959502257407e-04 6.366462912410e-12 0.000000000000e+00
    5.500000000000e+01-1.971875000000e+01 4.644836333220e-09-2.137350493364e+00
   -9.443610906601e-07 2.196346060373e-03 1.115724444389e-05 5.153675212860e+03
    1.152000000000e+05 1.676380634308e-08-9.161164637451e-01-3.539025783539e-08
    9.569607620112e-01 1.618125000000e+02-2.548065199086e+00-7.960688737497e-09
   -4.878774649119e-10 1.000000000000e+00 2.005000000000e+03 0.000000000000e+00
    2.400000000000e+00 0.000000000000e+00 4.656612873077e-10 5.500000000000e+01
    1.080060000000e+05 4.000000000000e+00
16 18  6 11  8  0  0.0 2.181623131037e-05-1.364242052659e-12 0.000000000000e+00
    6.700000000000e+01-2.184375000000e+01 4.136600877459e-09-1.905292093578e+00
   -1.113861799240e-06 1.000771170948e-02 1.411885023117e-06 5.153645364761e+03
    1.152000000000e+05 7.450580596924e-08 1.267880925153e+00-1.117587089539e-07
    9.866785500935e-01 3.661562500000e+02 5.205008427322e-01-8.137481815924e-09
   -7.786038605475e-11 1.000000000000e+00 2.005000000000e+03 0.000000000000e+00
    2.400000000000e+00 0.000000000000e+00-1.071020960808e-08 6.700000000000e+01
    1.080060000000e+05 4.000000000000e+00
18 18  6 11  8  0  0.0 2.024322748184e-05 4.661160346586e-12 0.000000000000e+00
    9.100000000000e+01 7.000000000000e+00 4.651979487904e-09 9.945154300396e-01
    2.998858690262e-07 1.462998904753e-02 1.053698360920e-05 5.153654153824e+03
    1.152000000000e+05-2.682209014893e-07-3.045352321685e+00-3.725290298462e-08
    9.501702254438e-01 1.728125000000e+02 1.310017579879e+00-8.317132156224e-09
    5.325221816864e-10 1.000000000000e+00 2.005000000000e+03 0.000000000000e+00
    3.400000000000e+00 0.000000000000e+00-6.984919309616e-09 9.100000000000e+01
    1.080060000000e+05 4.000000000000e+00
29 18  6 11  8  0  0.0 4.344368353486e-04-6.707523425575e-12 0.000000000000e+00
    6.300000000000e+01-1.256562500000e+02 3.646223308408e-09-1.920248556940e+00
   -6.468966603279e-06 8.080410771072e-04 9.907409548759e-06 5.153690301895e+03
    1.152000000000e+05 6.705522537231e-08 2.294114986572e+00-5.960464477539e-08
    9.841442917543e-01 2.020312500000e+02 1.219131705158e+00-7.691748963647e-09
   -2.457245211269e-10 1.000000000000e+00 2.005000000000e+03 0.000000000000e+00
    2.400000000000e+00 0.000000000000e+00-1.024454832077e-08 6.300000000000e+01
    1.080060000000e+05 4.000000000000e+00
27 18  6 11  8  0  0.0 3.663562238216e-04-1.477928890381e-12 0.000000000000e+00
    9.800000000000e+01-1.117187500000e+02 3.761585256553e-09-2.844479373766e+00
   -5.772337317467e-06 5.986811593175e-03 9.028241038322e-06 5.153692550659e+03
    1.152000000000e+05-2.607703208923e-08 2.229345657904e+00 1.862645149231e-09
    9.775278131800e-01 2.152500000000e+02 4.341312872421e-01-7.722107371054e-09
   -1.632210845276e-10 1.000000000000e+00 2.005000000000e+03 0.000000000000e+00
    3.400000000000e+00 0.000000000000e+00 1.396983861923e-09 9.800000000000e+01
    1.080060000000e+05 4.000000000000e+00
28 18  6 11  8  0  0.0 7.227207534015e-04 2.955857780762e-12 0.000000000000e+00
    1.780000000000e+02-2.934375000000e+01 4.159458972448e-09-1.952813824363e+00
   -1.288950443268e-06 1.948263752274e-02 1.607462763786e-06 5.153677831650e+03
    1.152000000000e+05 2.477318048477e-07 1.272120741164e+00 2.924352884293e-07
    9.855526780992e-01 3.609687500000e+02-1.519555245290e+00-8.031763126602e-09
   -2.807259790781e-10 1.000000000000e+00 2.005000000000e+03 0.000000000000e+00
    4.850000000000e+00 0.000000000000e+00-1.117587089539e-08 1.780000000000e+02
    1.080060000000e+05 4.000000000000e+00
27 18  6 11  7 59 44.0 3.663562238216e-04-1.477928890381e-12 0.000000000000e+00
    0.000000000000e+00-1.117187500000e+02 3.761942414287e-09-2.846812647642e+00
   -5.774199962616e-06 5.986805772409e-03 9.028241038322e-06 5.153692550659e+03
    1.151840000000e+05-2.607703208923e-08 2.229345798344e+00 1.862645149231e-09
    9.775278234204e-01 2.152500000000e+02 4.341308571442e-01-7.722107371054e-09
   -1.628639267934e-10 1.000000000000e+00 2.005000000000e+03 0.000000000000e+00
    2.400000000000e+00 0.000000000000e+00 1.396983861923e-09 0.000000000000e+00
    1.095960000000e+05 4.000000000000e+00
 8 18  6 11  7 59 44.0-1.043779775500e-04-1.364242052659e-12 0.000000000000e+00
    1.800000000000e+01-1.075000000000e+02 4.007666935414e-09-2.547964995049e+00
   -5.548819899559e-06 3.466566558927e-03 8.715316653252e-06 5.153586431503e+03
    1.151840000000e+05-3.725290298462e-08 2.220771050314e+00 5.960464477539e-08
    9.693254802056e-01 2.176875000000e+02-4.188295796017e-01-7.914972547519e-09
   -2.025084352892e-10 1.000000000000e+00 2.005000000000e+03 0.000000000000e+00
    2.400000000000e+00 0.000000000000e+00 5.122274160385e-09 1.800000000000e+01
    1.123860000000e+05 4.000000000000e+00
29 18  6 11  7 59 44.0 4.344461485744e-04-6.593836587854e-12 0.000000000000e+00
    1.400000000000e+01-1.256562500000e+02 3.646223308408e-09-1.922574110997e+00
   -6.468966603279e-06 8.080324623734e-04 9.907409548759e-06 5.153690307617e+03
    1.151840000000e+05 6.705522537231e-08 2.294115141641e+00-5.960464477539e-08
    9.841443005318e-01 2.020312500000e+02 1.219123487947e+00-7.691748963647e-09
   -2.453673633927e-10 1.000000000000e+00 2.005000000000e+03 0.000000000000e+00
    2.400000000000e+00 0.000000000000e+00-1.024454832077e-08 1.400000000000e+01
    1.140960000000e+05 4.000000000000e+00
17 18  6 11  7 59 28.0-8.937856182456e-05 3.637978807092e-12 0.000000000000e+00
    2.000000000000e+00-1.152812500000e+02 3.536933041744e-09-2.943422639928e+00
   -5.846843123436e-06 1.235640875529e-02 1.059286296368e-05 5.153577322006e+03
    1.151680000000e+05 9.872019290924e-08 2.283492616976e+00-4.284083843231e-08
    9.828507430157e-01 1.838750000000e+02-1.778152171312e+00-7.424594978468e-09
   -1.607209803882e-10 1.000000000000e+00 2.005000000000e+03 0.000000000000e+00
    2.400000000000e+00 0.000000000000e+00-1.117587089539e-08 2.000000000000e+00
    1.144560000000e+05 4.000000000000e+00
17 18  6 11  9 59 28.0-8.935201913118e-05 3.637978807092e-12 0.000000000000e+00
    1.800000000000e+01-1.001250000000e+02 3.757656521477e-09-1.893320669205e+00
   -5.237758159637e-06 1.235896116123e-02 9.860843420029e-06 5.153571746826e+03
    1.223680000000e+05 3.166496753693e-07 2.283439747117e+00 9.313225746155e-08
    9.828488236671e-01 2.011562500000e+02-1.778018931660e+00-7.564957968007e-09
   -2.982267080537e-10 1.000000000000e+00 2.005000000000e+03 0.000000000000e+00
    2.400000000000e+00 0.000000000000e+00-1.117587089539e-08 1.800000000000e+01
    1.152060000000e+05 4.000000000000e+00
